COMMENT,ORIGINATOR,NORAD_CAT_ID,OBJECT_NAME,OBJECT_TYPE,CLASSIFICATION_TYPE,INTLDES,EPOCH,EPOCH_MICROSECONDS,MEAN_MOTION,ECCENTRICITY,INCLINATION,RA_OF_ASC_NODE,ARG_OF_PERICENTER,MEAN_ANOMALY,EPHEMERIS_TYPE,ELEMENT_SET_NO,REV_AT_EPOCH,BSTAR,MEAN_MOTION_DOT,MEAN_MOTION_DDOT,FILE,TLE_LINE0,TLE_LINE1,TLE_LINE2,OBJECT_ID,OBJECT_NUMBER,SEMIMAJOR_AXIS,PERIOD,APOGEE,PERIGEE,DECAYED
"GENERATED VIA SPACETRACK.ORG API","18 SPCS","55102","SPACEBEE-157","PAYLOAD","U","23001CX","2024-05-17 03:35:37","450464","15.48375863","0.0009356","97.4196","204.7114","243.2735","116.7558","0","999","7635","0.0019623","0.00105208","0","4320024","0 SPACEBEE-157","1 55102U 23001CX  24138.14973901  .00105208  00000-0  19623-2 0  9990","2 55102  97.4196 204.7114 0009356 243.2735 116.7558 15.48375863 76353","2023-001CX","55102","6799.614","93.001","427.841","415.117","0"
"GENERATED VIA SPACETRACK.ORG API","18 SPCS","55102","SPACEBEE-157","PAYLOAD","U","23001CX","2024-05-17 22:12:17","330112","15.48582163","0.0009489","97.4199","205.5078","241.133","118.8969","0","999","7647","0.0023559","0.00127604","0","4320369","0 SPACEBEE-157","1 55102U 23001CX  24138.92520058  .00127604  00000-0  23559-2 0  9994","2 55102  97.4199 205.5078 0009489 241.1330 118.8969 15.48582163 76474","2023-001CX","55102","6799.010","92.988","427.326","414.423","0"
"GENERATED VIA SPACETRACK.ORG API","18 SPCS","55102","SPACEBEE-157","PAYLOAD","U","23001CX","2024-05-18 04:24:28","368288","15.48676401","0.0009428","97.4197","205.7734","240.2939","119.7374","0","999","7651","0.0025874","0.00140844","0","4320663","0 SPACEBEE-157","1 55102U 23001CX  24139.18366167  .00140844  00000-0  25874-2 0  9995","2 55102  97.4197 205.7734 0009428 240.2939 119.7374 15.48676401 76515","2023-001CX","55102","6798.734","92.983","427.009","414.189","0"
"GENERATED VIA SPACETRACK.ORG API","18 SPCS","55102","SPACEBEE-157","PAYLOAD","U","23001CX","2024-05-18 10:36:38","164032","15.48756747","0.0009457","97.4195","206.0392","239.5988","120.4329","0","999","7655","0.0026832","0.00146579","0","4321083","0 SPACEBEE-157","1 55102U 23001CX  24139.44210838  .00146579  00000-0  26832-2 0  9993","2 55102  97.4195 206.0392 0009457 239.5988 120.4329 15.48756747 76559","2023-001CX","55102","6798.499","92.978","426.793","413.935","0"
"GENERATED VIA SPACETRACK.ORG API","18 SPCS","55102","SPACEBEE-157","PAYLOAD","U","23001CX","2024-05-18 16:48:46","886688","15.48828974","0.0009538","97.4196","206.3044","238.9991","121.0323","0","999","7659","0.0023354","0.00127588","0","4321432","0 SPACEBEE-157","1 55102U 23001CX  24139.70054267  .00127588  00000-0  23354-2 0  9999","2 55102  97.4196 206.3044 0009538 238.9991 121.0323 15.48828974 76591","2023-001CX","55102","6798.288","92.973","426.637","413.668","0"
"GENERATED VIA SPACETRACK.ORG API","18 SPCS","55102","SPACEBEE-157","PAYLOAD","U","23001CX","2024-05-19 03:39:59","587200","15.48951307","0.0009604","97.4196","206.7686","237.2122","122.8204","0","999","7666","0.0019609","0.001073","0","4321746","0 SPACEBEE-157","1 55102U 23001CX  24140.15277300  .00107300  00000-0  19609-2 0  9993","2 55102  97.4196 206.7686 0009604 237.2122 122.8204 15.48951307 76661","2023-001CX","55102","6797.930","92.966","426.323","413.266","0"
"GENERATED VIA SPACETRACK.ORG API","18 SPCS","55102","SPACEBEE-157","PAYLOAD","U","23001CX","2024-05-19 16:04:10","689888","15.49085018","0.0009638","97.4195","207.3003","236.3473","123.6859","0","999","7674","0.0023335","0.0012865","0","4321929","0 SPACEBEE-157","1 55102U 23001CX  24140.66956817  .00128650  00000-0  23335-2 0  9998","2 55102  97.4195 207.3003 0009638 236.3473 123.6859 15.49085018 76748","2023-001CX","55102","6797.538","92.958","425.955","412.852","0"
"GENERATED VIA SPACETRACK.ORG API","18 SPCS","55102","SPACEBEE-157","PAYLOAD","U","23001CX","2024-05-20 02:55:17","202432","15.49203333","0.0009724","97.4195","207.7647","234.5425","125.4919","0","999","7681","0.0023149","0.00128148","0","4322688","0 SPACEBEE-157","1 55102U 23001CX  24141.12172688  .00128148  00000-0  23149-2 0  9991","2 55102  97.4195 207.7647 0009724 234.5425 125.4919 15.49203333 76816","2023-001CX","55102","6797.192","92.951","425.667","412.448","0"
"GENERATED VIA SPACETRACK.ORG API","18 SPCS","55102","SPACEBEE-157","PAYLOAD","U","23001CX","2024-05-20 16:52:21","588096","15.49336284","0.0009737","97.4195","208.3631","233.1066","126.9293","0","999","7690","0.0021548","0.00119709","0","4322861","0 SPACEBEE-157","1 55102U 23001CX  24141.70302764  .00119709  00000-0  21548-2 0  9999","2 55102  97.4195 208.3631 0009737 233.1066 126.9293 15.49336284 76909","2023-001CX","55102","6796.803","92.943","425.287","412.050","0"
"GENERATED VIA SPACETRACK.ORG API","18 SPCS","55102","SPACEBEE-157","PAYLOAD","U","23001CX","2024-05-21 03:43:21","969696","15.49442118","0.0009777","97.4196","208.8279","231.3015","128.7362","0","999","7697","0.0020722","0.00115485","0","4323618","0 SPACEBEE-157","1 55102U 23001CX  24142.15511539  .00115485  00000-0  20722-2 0  9991","2 55102  97.4196 208.8279 0009777 231.3015 128.7362 15.49442118 76979","2023-001CX","55102","6796.494","92.937","425.004","411.714","0"
"GENERATED VIA SPACETRACK.ORG API","18 SPCS","55102","SPACEBEE-157","PAYLOAD","U","23001CX","2024-05-21 17:40:18","891264","15.49562102","0.0009684","97.4196","209.4262","230.3908","129.6489","0","999","7706","0.0019153","0.00107067","0","4323760","0 SPACEBEE-157","1 55102U 23001CX  24142.73632976  .00107067  00000-0  19153-2 0  9997","2 55102  97.4196 209.4262 0009684 230.3908 129.6489 15.49562102 77062","2023-001CX","55102","6796.143","92.929","424.590","411.427","0"
"GENERATED VIA SPACETRACK.ORG API","18 SPCS","55102","SPACEBEE-157","PAYLOAD","U","23001CX","2024-05-21 17:40:18","891264","15.49562102","0.0009684","97.4196","209.4262","230.3908","129.6489","0","999","7706","0.0019153","0.00107067","0","4323884","0 SPACEBEE-157","1 55102U 23001CX  24142.73632976  .00107067  00000-0  19153-2 0  9997","2 55102  97.4196 209.4262 0009684 230.3908 129.6489 15.49562102 77062","2023-001CX","55102","6796.143","92.929","424.590","411.427","0"
"GENERATED VIA SPACETRACK.ORG API","18 SPCS","55102","SPACEBEE-157","PAYLOAD","U","23001CX","2024-05-22 02:58:14","237760","15.49662397","0.0009912","97.4195","209.8243","228.7038","131.3361","0","999","7712","0.002025","0.00113708","0","4324110","0 SPACEBEE-157","1 55102U 23001CX  24143.12377590  .00113708  00000-0  20250-2 0  9998","2 55102  97.4195 209.8243 0009912 228.7038 131.3361 15.49662397 77126","2023-001CX","55102","6795.850","92.923","424.451","410.979","0"
"GENERATED VIA SPACETRACK.ORG API","18 SPCS","55102","SPACEBEE-157","PAYLOAD","U","23001CX","2024-05-22 02:58:14","237760","15.49662397","0.0009912","97.4195","209.8243","228.7038","131.3361","0","999","7712","0.002025","0.00113708","0","4324498","0 SPACEBEE-157","1 55102U 23001CX  24143.12377590  .00113708  00000-0  20250-2 0  9998","2 55102  97.4195 209.8243 0009912 228.7038 131.3361 15.49662397 77126","2023-001CX","55102","6795.850","92.923","424.451","410.979","0"
"GENERATED VIA SPACETRACK.ORG API","18 SPCS","55102","SPACEBEE-157","PAYLOAD","U","23001CX","2024-05-23 03:45:53","199936","15.49877277","0.0010058","97.4191","210.8872","225.7543","134.2883","0","999","7728","0.0017243","0.00097348","0","4324867","0 SPACEBEE-157","1 55102U 23001CX  24144.15686574  .00097348  00000-0  17243-2 0  9996","2 55102  97.4191 210.8872 0010058 225.7543 134.2883 15.49877277 77286","2023-001CX","55102","6795.222","92.911","423.921","410.252","0"
"GENERATED VIA SPACETRACK.ORG API","18 SPCS","55102","SPACEBEE-157","PAYLOAD","U","23001CX","2024-05-23 03:45:53","199936","15.49877277","0.0010058","97.4191","210.8872","225.7543","134.2883","0","999","7728","0.0017243","0.00097348","0","4325336","0 SPACEBEE-157","1 55102U 23001CX  24144.15686574  .00097348  00000-0  17243-2 0  9996","2 55102  97.4191 210.8872 0010058 225.7543 134.2883 15.49877277 77286","2023-001CX","55102","6795.222","92.911","423.921","410.252","0"
"GENERATED VIA SPACETRACK.ORG API","18 SPCS","55102","SPACEBEE-157","PAYLOAD","U","23001CX","2024-05-23 17:42:35","867232","15.50001213","0.001002","97.4187","211.4853","225.088","134.9559","0","999","7737","0.0017798","0.00100968","0","4325574","0 SPACEBEE-157","1 55102U 23001CX  24144.73791513  .00100968  00000-0  17798-2 0  9998","2 55102  97.4187 211.4853 0010020 225.0880 134.9559 15.50001213 77371","2023-001CX","55102","6794.860","92.903","423.533","409.916","0"
"GENERATED VIA SPACETRACK.ORG API","18 SPCS","55102","SPACEBEE-157","PAYLOAD","U","23001CX","2024-05-24 03:00:21","878208","15.50094238","0.0010102","97.4184","211.8836","223.2832","136.7627","0","999","7743","0.001829","0.00104147","0","4325789","0 SPACEBEE-157","1 55102U 23001CX  24145.12525322  .00104147  00000-0  18290-2 0  9996","2 55102  97.4184 211.8836 0010102 223.2832 136.7627 15.50094238 77433","2023-001CX","55102","6794.588","92.898","423.317","409.589","0"
"GENERATED VIA SPACETRACK.ORG API","18 SPCS","55102","SPACEBEE-157","PAYLOAD","U","23001CX","2024-05-24 03:00:21","878208","15.50094238","0.0010102","97.4184","211.8836","223.2832","136.7627","0","999","7743","0.001829","0.00104147","0","4326215","0 SPACEBEE-157","1 55102U 23001CX  24145.12525322  .00104147  00000-0  18290-2 0  9996","2 55102  97.4184 211.8836 0010102 223.2832 136.7627 15.50094238 77433","2023-001CX","55102","6794.588","92.898","423.317","409.589","0"
"GENERATED VIA SPACETRACK.ORG API","18 SPCS","55102","SPACEBEE-157","PAYLOAD","U","23001CX","2024-05-24 16:56:57","277536","15.5022903","0.0010096","97.4178","212.4821","221.3215","138.7273","0","999","7752","0.0018882","0.00108085","0","4326393","0 SPACEBEE-157","1 55102U 23001CX  24145.70621849  .00108085  00000-0  18882-2 0  9993","2 55102  97.4178 212.4821 0010096 221.3215 138.7273 15.50229030 77522","2023-001CX","55102","6794.194","92.890","422.918","409.199","0"
